start=new Date('2022-04-08T00:00:00.000Z').valueOf();
sats=[{"EPHEMERIS_TYPE":"0","CLASSIFICATION_TYPE":"U","LAUNCH_DATE":"2022-03-03","NORAD_CAT_ID":"51892","EPOCH":"2022-04-07T22:00:00.999936","COUNTRY_CODE":"US","OBJECT_TYPE":"PAYLOAD","INCLINATION":"53.2154","BSTAR":"-0.00041432000000","PERIAPSIS":"348.856","MEAN_MOTION_DOT":"-0.00058536","PERIOD":"91.529","SITE":"AFETR","MEAN_ELEMENT_THEORY":"SGP4","GP_ID":"200703891","MEAN_MOTION":"15.73270198","CENTER_NAME":"EARTH","ARG_OF_PERICENTER":"85.0589","APOAPSIS":"350.264","TLE_LINE1":"1 51892U 22022AS  22097.91667824 -.00058536  00000-0 -41432-3 0  9992","TLE_LINE2":"2 51892  53.2154 329.3878 0001046  85.0589 279.1815 15.73270198  3686","RCS_SIZE":"LARGE","MEAN_ANOMALY":"279.1815","OBJECT_ID":"2022-022AS","REF_FRAME":"TEME","ELEMENT_SET_NO":"999","TIME_SYSTEM":"UTC","FILE":"3392478","ECCENTRICITY":"0.00010460","OBJECT_NAME":"STARLINK-3587","SEMIMAJOR_AXIS":"6727.695","DECAY_DATE":null,"RA_OF_ASC_NODE":"329.3878","MEAN_MOTION_DDOT":"0.0000000000000","REV_AT_EPOCH":"368"},{"REF_FRAME":"TEME","ELEMENT_SET_NO":"999","ECCENTRICITY":"0.00008860","FILE":"3392478","TIME_SYSTEM":"UTC","DECAY_DATE":null,"SEMIMAJOR_AXIS":"6727.900","OBJECT_NAME":"STARLINK-3579","REV_AT_EPOCH":"368","MEAN_MOTION_DDOT":"0.0000000000000","RA_OF_ASC_NODE":"329.3836","COUNTRY_CODE":"US","OBJECT_TYPE":"PAYLOAD","EPOCH":"2022-04-07T22:00:00.999936","NORAD_CAT_ID":"51893","LAUNCH_DATE":"2022-03-03","CLASSIFICATION_TYPE":"U","EPHEMERIS_TYPE":"0","PERIAPSIS":"349.169","BSTAR":"-0.00020929000000","INCLINATION":"53.2157","MEAN_MOTION":"15.73198186","GP_ID":"200704410","MEAN_ELEMENT_THEORY":"SGP4","SITE":"AFETR","MEAN_MOTION_DOT":"-0.00029884","PERIOD":"91.533","OBJECT_ID":"2022-022AT","MEAN_ANOMALY":"267.0193","RCS_SIZE":"LARGE","TLE_LINE2":"2 51893  53.2157 329.3836 0000886  99.7486 267.0193 15.73198186  3684","TLE_LINE1":"1 51893U 22022AT  22097.91667824 -.00029884  00000-0 -20929-3 0  9995","APOAPSIS":"350.361","ARG_OF_PERICENTER":"99.7486","CENTER_NAME":"EARTH"},{"ELEMENT_SET_NO":"999","REF_FRAME":"TEME","TIME_SYSTEM":"UTC","ECCENTRICITY":"0.00011750","FILE":"3392478","SEMIMAJOR_AXIS":"6727.800","DECAY_DATE":null,"OBJECT_NAME":"STARLINK-3595","MEAN_MOTION_DDOT":"0.0000000000000","REV_AT_EPOCH":"368","RA_OF_ASC_NODE":"329.3832","NORAD_CAT_ID":"51894","EPOCH":"2022-04-07T22:00:00.999936","COUNTRY_CODE":"US","OBJECT_TYPE":"PAYLOAD","EPHEMERIS_TYPE":"0","CLASSIFICATION_TYPE":"U","LAUNCH_DATE":"2022-03-03","BSTAR":"-0.00020732000000","PERIAPSIS":"348.875","INCLINATION":"53.2151","MEAN_MOTION":"15.73233292","PERIOD":"91.531","MEAN_MOTION_DOT":"-0.00029654","SITE":"AFETR","MEAN_ELEMENT_THEORY":"SGP4","GP_ID":"200703987","MEAN_ANOMALY":"262.3122","RCS_SIZE":"LARGE","OBJECT_ID":"2022-022AU","ARG_OF_PERICENTER":"103.9076","CENTER_NAME":"EARTH","APOAPSIS":"350.456","TLE_LINE1":"1 51894U 22022AU  22097.91667824 -.00029654  00000-0 -20732-3 0  9993","TLE_LINE2":"2 51894  53.2151 329.3832 0001175 103.9076 262.3122 15.73233292  3688"},{"COUNTRY_CODE":"US","OBJECT_TYPE":"PAYLOAD","EPOCH":"2022-04-07T22:00:00.999936","NORAD_CAT_ID":"51895","LAUNCH_DATE":"2022-03-03","CLASSIFICATION_TYPE":"U","EPHEMERIS_TYPE":"0","PERIAPSIS":"348.966","BSTAR":"-0.00009122300000","INCLINATION":"53.2157","MEAN_MOTION":"15.73223277","GP_ID":"200704511","MEAN_ELEMENT_THEORY":"SGP4","SITE":"AFETR","PERIOD":"91.532","MEAN_MOTION_DOT":"-0.00013414","OBJECT_ID":"2022-022AV","MEAN_ANOMALY":"277.9171","RCS_SIZE":"LARGE","TLE_LINE2":"2 51895  53.2157 329.3808 0001082  90.2140 277.9171 15.73223277  3683","APOAPSIS":"350.422","TLE_LINE1":"1 51895U 22022AV  22097.91667824 -.00013414  00000-0 -91223-4 0  9995","CENTER_NAME":"EARTH","ARG_OF_PERICENTER":"90.2140","ELEMENT_SET_NO":"999","REF_FRAME":"TEME","ECCENTRICITY":"0.00010820","FILE":"3392478","TIME_SYSTEM":"UTC","DECAY_DATE":null,"SEMIMAJOR_AXIS":"6727.829","OBJECT_NAME":"STARLINK-3594","REV_AT_EPOCH":"368","MEAN_MOTION_DDOT":"0.0000000000000","RA_OF_ASC_NODE":"329.3808"},{"MEAN_ANOMALY":"282.5195","RCS_SIZE":"LARGE","OBJECT_ID":"2022-022AW","TLE_LINE1":"1 51896U 22022AW  22097.91667824 -.00028485  00000-0 -19903-3 0  9994","APOAPSIS":"350.439","TLE_LINE2":"2 51896  53.2172 329.3824 0001108  85.0177 282.5195 15.73223257  3686","CENTER_NAME":"EARTH","ARG_OF_PERICENTER":"85.0177","MEAN_MOTION":"15.73223257","MEAN_ELEMENT_THEORY":"SGP4","GP_ID":"200704214","PERIOD":"91.532","MEAN_MOTION_DOT":"-0.00028485","SITE":"AFETR","BSTAR":"-0.00019903000000","PERIAPSIS":"348.948","INCLINATION":"53.2172","EPOCH":"2022-04-07T22:00:00.999936","COUNTRY_CODE":"US","OBJECT_TYPE":"PAYLOAD","NORAD_CAT_ID":"51896","LAUNCH_DATE":"2022-03-03","EPHEMERIS_TYPE":"0","CLASSIFICATION_TYPE":"U","REV_AT_EPOCH":"368","MEAN_MOTION_DDOT":"0.0000000000000","RA_OF_ASC_NODE":"329.3824","DECAY_DATE":null,"SEMIMAJOR_AXIS":"6727.829","OBJECT_NAME":"STARLINK-3593","ECCENTRICITY":"0.00011080","FILE":"3392478","TIME_SYSTEM":"UTC","ELEMENT_SET_NO":"999","REF_FRAME":"TEME"},{"INCLINATION":"53.2154","PERIAPSIS":"348.839","BSTAR":"-0.00031242000000","LAUNCH_DATE":"2022-03-03","CLASSIFICATION_TYPE":"U","EPHEMERIS_TYPE":"0","COUNTRY_CODE":"US","OBJECT_TYPE":"PAYLOAD","EPOCH":"2022-04-07T22:00:00.999936","NORAD_CAT_ID":"51897","TLE_LINE2":"2 51897  53.2154 329.3793 0001261  96.3851 272.3834 15.73225464  3685","TLE_LINE1":"1 51897U 22022AX  22097.91667824 -.00044283  00000-0 -31242-3 0  9999","APOAPSIS":"350.536","ARG_OF_PERICENTER":"96.3851","CENTER_NAME":"EARTH","OBJECT_ID":"2022-022AX","MEAN_ANOMALY":"272.3834","RCS_SIZE":"LARGE","GP_ID":"200704088","MEAN_ELEMENT_THEORY":"SGP4","SITE":"AFETR","MEAN_MOTION_DOT":"-0.00044283","PERIOD":"91.532","MEAN_MOTION":"15.73225464","ECCENTRICITY":"0.00012610","FILE":"3392478","TIME_SYSTEM":"UTC","REF_FRAME":"TEME","ELEMENT_SET_NO":"999","RA_OF_ASC_NODE":"329.3793","REV_AT_EPOCH":"368","MEAN_MOTION_DDOT":"0.0000000000000","OBJECT_NAME":"STARLINK-3598","DECAY_DATE":null,"SEMIMAJOR_AXIS":"6727.823"},{"INCLINATION":"53.2152","BSTAR":"0.00012759000000","PERIAPSIS":"348.940","LAUNCH_DATE":"2022-03-03","EPHEMERIS_TYPE":"0","CLASSIFICATION_TYPE":"U","EPOCH":"2022-04-07T22:00:00.999936","OBJECT_TYPE":"PAYLOAD","COUNTRY_CODE":"US","NORAD_CAT_ID":"51898","APOAPSIS":"350.511","TLE_LINE1":"1 51898U 22022AY  22097.91667824  .00017333  00000-0  12759-3 0  9996","TLE_LINE2":"2 51898  53.2152 329.3768 0001167  88.0116 281.3913 15.73212115  3680","CENTER_NAME":"EARTH","ARG_OF_PERICENTER":"88.0116","RCS_SIZE":"LARGE","MEAN_ANOMALY":"281.3913","OBJECT_ID":"2022-022AY","MEAN_ELEMENT_THEORY":"SGP4","GP_ID":"200704310","PERIOD":"91.532","MEAN_MOTION_DOT":"0.00017333","SITE":"AFETR","MEAN_MOTION":"15.73212115","ECCENTRICITY":"0.00011670","FILE":"3392478","TIME_SYSTEM":"UTC","ELEMENT_SET_NO":"999","REF_FRAME":"TEME","RA_OF_ASC_NODE":"329.3768","REV_AT_EPOCH":"368","MEAN_MOTION_DDOT":"0.0000000000000","OBJECT_NAME":"STARLINK-3597","DECAY_DATE":null,"SEMIMAJOR_AXIS":"6727.861"},{"REF_FRAME":"TEME","ELEMENT_SET_NO":"999","TIME_SYSTEM":"UTC","ECCENTRICITY":"0.00014330","FILE":"3392478","SEMIMAJOR_AXIS":"6727.965","DECAY_DATE":null,"OBJECT_NAME":"STARLINK-3700","MEAN_MOTION_DDOT":"0.0000000000000","REV_AT_EPOCH":"368","RA_OF_ASC_NODE":"354.5155","NORAD_CAT_ID":"51956","OBJECT_TYPE":"PAYLOAD","COUNTRY_CODE":"US","EPOCH":"2022-04-07T22:00:00.999936","CLASSIFICATION_TYPE":"U","EPHEMERIS_TYPE":"0","LAUNCH_DATE":"2022-03-09","PERIAPSIS":"348.866","BSTAR":"0.00013923000000","INCLINATION":"53.2167","MEAN_MOTION":"15.73175563","SITE":"AFETR","MEAN_MOTION_DOT":"0.00018944","PERIOD":"91.535","GP_ID":"200704417","MEAN_ELEMENT_THEORY":"SGP4","OBJECT_ID":"2022-025A","RCS_SIZE":"LARGE","MEAN_ANOMALY":"26.5617","ARG_OF_PERICENTER":"119.9821","CENTER_NAME":"EARTH","TLE_LINE2":"2 51956  53.2167 354.5155 0001433 119.9821  26.5617 15.73175563  3689","TLE_LINE1":"1 51956U 22025A   22097.91667824  .00018944  00000-0  13923-3 0  9997","APOAPSIS":"350.794"},{"RCS_SIZE":"LARGE","MEAN_ANOMALY":"9.5464","OBJECT_ID":"2022-025B","CENTER_NAME":"EARTH","ARG_OF_PERICENTER":"140.2089","APOAPSIS":"350.678","TLE_LINE1":"1 51957U 22025B   22097.91667824  .00043009  00000-0  30966-3 0  9994","TLE_LINE2":"2 51957  53.2161 354.5076 0001244 140.2089   9.5464 15.73171798  3686","MEAN_MOTION":"15.73171798","PERIOD":"91.535","MEAN_MOTION_DOT":"0.00043009","SITE":"AFETR","MEAN_ELEMENT_THEORY":"SGP4","GP_ID":"200703994","BSTAR":"0.00030966000000","PERIAPSIS":"349.004","INCLINATION":"53.2161","NORAD_CAT_ID":"51957","EPOCH":"2022-04-07T22:00:00.999936","COUNTRY_CODE":"US","OBJECT_TYPE":"PAYLOAD","EPHEMERIS_TYPE":"0","CLASSIFICATION_TYPE":"U","LAUNCH_DATE":"2022-03-09","MEAN_MOTION_DDOT":"0.0000000000000","REV_AT_EPOCH":"368","RA_OF_ASC_NODE":"354.5076","SEMIMAJOR_AXIS":"6727.976","DECAY_DATE":null,"OBJECT_NAME":"STARLINK-3694","TIME_SYSTEM":"UTC","ECCENTRICITY":"0.00012440","FILE":"3392478","ELEMENT_SET_NO":"999","REF_FRAME":"TEME"},{"REF_FRAME":"TEME","ELEMENT_SET_NO":"999","TIME_SYSTEM":"UTC","FILE":"3392478","ECCENTRICITY":"0.00013710","SEMIMAJOR_AXIS":"6727.961","DECAY_DATE":null,"OBJECT_NAME":"STARLINK-3692","MEAN_MOTION_DDOT":"0.0000000000000","REV_AT_EPOCH":"368","RA_OF_ASC_NODE":"354.5140","NORAD_CAT_ID":"51958","EPOCH":"2022-04-07T22:00:00.999936","OBJECT_TYPE":"PAYLOAD","COUNTRY_CODE":"US","EPHEMERIS_TYPE":"0","CLASSIFICATION_TYPE":"U","LAUNCH_DATE":"2022-03-09","BSTAR":"0.00031932000000","PERIAPSIS":"348.903","INCLINATION":"53.2166","MEAN_MOTION":"15.73177086","MEAN_MOTION_DOT":"0.00044387","PERIOD":"91.535","SITE":"AFETR","MEAN_ELEMENT_THEORY":"SGP4","GP_ID":"200704518","MEAN_ANOMALY":"12.4312","RCS_SIZE":"LARGE","OBJECT_ID":"2022-025C","ARG_OF_PERICENTER":"134.8196","CENTER_NAME":"EARTH","TLE_LINE1":"1 51958U 22025C   22097.91667824  .00044387  00000-0  31932-3 0  9999","APOAPSIS":"350.748","TLE_LINE2":"2 51958  53.2166 354.5140 0001371 134.8196  12.4312 15.73177086  3684"}];
